0 DELTA 1 DEB
1 19429U 77065FY  13280.10093243  .00002163  00000-0  34799-3 0  2154
2 19429 029.1088 244.9769 0552674 119.7207 327.0289 14.00132136228691
0 DELTA 1 DEB
1 19429U 77065FY  13281.17581029  .00002536  00000-0  41110-3 0  2166
2 19429 029.1089 239.0126 0552610 129.3277 344.9392 14.00136489228843
0 DELTA 1 DEB
1 19429U 77065FY  13282.25040002  .00003341  00000-0  54789-3 0  2179
2 19429 029.1091 233.0496 0552523 138.9346 001.4068 14.00148333228998
0 DELTA 1 DEB
1 19429U 77065FY  13284.17445902  .00003242  00000-0  53027-3 0  2185
2 19429 029.1098 222.3726 0552432 156.1348 339.7243 14.00158182229261
0 DELTA 1 DEB
1 19429U 77065FY  13286.17149020  .00002836  00000-0  46002-3 0  2193
2 19429 029.1107 211.2906 0552404 173.9896 325.9290 14.00167028229542
0 DELTA 1 DEB
1 19429U 77065FY  13288.09487630  .00004280  00000-0  70525-3 0  2202
2 19429 029.1119 200.6171 0552384 191.1916 300.9733 14.00179677229811
0 DELTA 1 DEB
1 19429U 77065FY  13291.09253711  .00003407  00000-0  55517-3 0  2212
2 19429 029.1126 183.9829 0552460 217.9974 291.2052 14.00196280230231
0 DELTA 1 DEB
1 19429U 77065FY  13292.94044640  .00003504  00000-0  57150-3 0  2220
2 19429 029.1128 173.7288 0552428 234.5169 246.0183 14.00205440230494
0 DELTA 1 DEB
1 19429U 77065FY  13294.01396277  .00003864  00000-0  63261-3 0  2236
2 19429 029.1122 167.7725 0552408 244.1104 257.3597 14.00211977230644
